[
    {
      "name": "Heathcote, Conn and Hudson Medical Hospital",
      "address": "PO Box 46766",
      "pincode": 16365
    },
    {
      "name": "Rohan-Grimes Medical Hospital",
      "address": "Room 565",
      "pincode": 12599
    },
    {
      "name": "Braun LLC Medical Hospital",
      "address": "PO Box 77299",
      "pincode": 11589
    },
    {
      "name": "Lubowitz-Rau Medical Hospital",
      "address": "Room 1837",
      "pincode": 10468
    },
    {
      "name": "Cummerata, Funk and Kautzer Medical Hospital",
      "address": "5th Floor",
      "pincode": 15511
    },
    {
      "name": "Lindgren, Wintheiser and Treutel Medical Hospital",
      "address": "PO Box 8534",
      "pincode": 10960
    },
    {
      "name": "Kohler Group Medical Hospital",
      "address": "7th Floor",
      "pincode": 15074
    },
    {
      "name": "Hagenes, Howe and Moen Medical Hospital",
      "address": "Apt 23",
      "pincode": 12614
    },
    {
      "name": "Mante, Mitchell and Hirthe Medical Hospital",
      "address": "Suite 98",
      "pincode": 14665
    },
    {
      "name": "Larkin, Treutel and Gleichner Medical Hospital",
      "address": "Room 1326",
      "pincode": 11294
    },
    {
      "name": "Windler, Reichert and Stracke Medical Hospital",
      "address": "Room 1411",
      "pincode": 16319
    },
    {
      "name": "Welch, Prosacco and Von Medical Hospital",
      "address": "PO Box 56845",
      "pincode": 19503
    },
    {
      "name": "Lesch, Veum and Goodwin Medical Hospital",
      "address": "Room 1873",
      "pincode": 16359
    },
    {
      "name": "Donnelly, Steuber and Powlowski Medical Hospital",
      "address": "2nd Floor",
      "pincode": 16553
    },
    {
      "name": "Greenholt Inc Medical Hospital",
      "address": "Suite 1",
      "pincode": 16629
    },
    {
      "name": "Nolan-Nolan Medical Hospital",
      "address": "Room 1562",
      "pincode": 14783
    },
    {
      "name": "Wilderman and Sons Medical Hospital",
      "address": "PO Box 2923",
      "pincode": 16046
    },
    {
      "name": "Robel-Thompson Medical Hospital",
      "address": "PO Box 28454",
      "pincode": 16712
    },
    {
      "name": "Barrows, Cremin and Marquardt Medical Hospital",
      "address": "PO Box 74165",
      "pincode": 18760
    },
    {
      "name": "Wehner-Vandervort Medical Hospital",
      "address": "Apt 1212",
      "pincode": 19977
    },
    {
      "name": "Dibbert LLC Medical Hospital",
      "address": "Suite 57",
      "pincode": 19533
    },
    {
      "name": "Runte, Wolff and Denesik Medical Hospital",
      "address": "Suite 47",
      "pincode": 10326
    },
    {
      "name": "Ruecker-Murray Medical Hospital",
      "address": "PO Box 3963",
      "pincode": 13104
    },
    {
      "name": "Wolff Group Medical Hospital",
      "address": "PO Box 42695",
      "pincode": 10765
    },
    {
      "name": "Trantow LLC Medical Hospital",
      "address": "PO Box 97326",
      "pincode": 12374
    },
    {
      "name": "Bins-Parisian Medical Hospital",
      "address": "6th Floor",
      "pincode": 14299
    },
    {
      "name": "Roberts Group Medical Hospital",
      "address": "Apt 579",
      "pincode": 17086
    },
    {
      "name": "Macejkovic, Brown and Schimmel Medical Hospital",
      "address": "Room 285",
      "pincode": 19241
    },
    {
      "name": "Stracke, Smith and Ledner Medical Hospital",
      "address": "PO Box 86650",
      "pincode": 10027
    },
    {
      "name": "Glover-Balistreri Medical Hospital",
      "address": "17th Floor",
      "pincode": 13093
    },
    {
      "name": "Denesik, Hodkiewicz and Ratke Medical Hospital",
      "address": "Room 1234",
      "pincode": 18159
    },
    {
      "name": "Denesik-Kertzmann Medical Hospital",
      "address": "PO Box 78838",
      "pincode": 11752
    },
    {
      "name": "Feil LLC Medical Hospital",
      "address": "Room 1587",
      "pincode": 14394
    },
    {
      "name": "Reynolds-Hyatt Medical Hospital",
      "address": "5th Floor",
      "pincode": 18979
    },
    {
      "name": "Goldner-Howell Medical Hospital",
      "address": "10th Floor",
      "pincode": 13955
    },
    {
      "name": "Nitzsche LLC Medical Hospital",
      "address": "Room 1616",
      "pincode": 16636
    },
    {
      "name": "Quitzon-Ratke Medical Hospital",
      "address": "PO Box 5447",
      "pincode": 19970
    },
    {
      "name": "Goldner-Ratke Medical Hospital",
      "address": "PO Box 70860",
      "pincode": 15847
    },
    {
      "name": "Erdman-Rau Medical Hospital",
      "address": "Suite 45",
      "pincode": 15334
    },
    {
      "name": "Hodkiewicz-Orn Medical Hospital",
      "address": "5th Floor",
      "pincode": 12225
    },
    {
      "name": "Graham-Considine Medical Hospital",
      "address": "Apt 1637",
      "pincode": 13698
    },
    {
      "name": "Spencer-Hirthe Medical Hospital",
      "address": "5th Floor",
      "pincode": 17464
    },
    {
      "name": "Glover, Ullrich and Waters Medical Hospital",
      "address": "Suite 100",
      "pincode": 14454
    },
    {
      "name": "O'Connell LLC Medical Hospital",
      "address": "4th Floor",
      "pincode": 19055
    },
    {
      "name": "Mueller, Wolff and Bradtke Medical Hospital",
      "address": "Apt 98",
      "pincode": 18493
    },
    {
      "name": "Barton Inc Medical Hospital",
      "address": "Suite 40",
      "pincode": 14032
    },
    {
      "name": "Witting, Schuster and Price Medical Hospital",
      "address": "19th Floor",
      "pincode": 13849
    },
    {
      "name": "Zulauf Inc Medical Hospital",
      "address": "Room 175",
      "pincode": 12323
    },
    {
      "name": "Bernier-McKenzie Medical Hospital",
      "address": "6th Floor",
      "pincode": 18355
    },
    {
      "name": "Swaniawski, Borer and Mante Medical Hospital",
      "address": "Room 1200",
      "pincode": 15226
    },
    {
      "name": "Sipes-Farrell Medical Hospital",
      "address": "Suite 92",
      "pincode": 19079
    },
    {
      "name": "Mitchell, Larkin and Schroeder Medical Hospital",
      "address": "Suite 98",
      "pincode": 14867
    },
    {
      "name": "Tromp-Wisozk Medical Hospital",
      "address": "Suite 65",
      "pincode": 14519
    },
    {
      "name": "Schaefer and Sons Medical Hospital",
      "address": "PO Box 38861",
      "pincode": 13249
    },
    {
      "name": "Stokes and Sons Medical Hospital",
      "address": "Room 599",
      "pincode": 13258
    },
    {
      "name": "Hand-Hahn Medical Hospital",
      "address": "Suite 67",
      "pincode": 17769
    },
    {
      "name": "Murazik-Windler Medical Hospital",
      "address": "Room 1285",
      "pincode": 19824
    },
    {
      "name": "Daugherty-Hauck Medical Hospital",
      "address": "PO Box 60899",
      "pincode": 18726
    },
    {
      "name": "Bins-Maggio Medical Hospital",
      "address": "Apt 1710",
      "pincode": 17472
    },
    {
      "name": "Swaniawski, Wiza and Schamberger Medical Hospital",
      "address": "Room 1299",
      "pincode": 17252
    },
    {
      "name": "Kiehn, D'Amore and Lakin Medical Hospital",
      "address": "Room 33",
      "pincode": 15087
    },
    {
      "name": "Hagenes LLC Medical Hospital",
      "address": "Suite 67",
      "pincode": 18424
    },
    {
      "name": "Schowalter and Sons Medical Hospital",
      "address": "Suite 16",
      "pincode": 16012
    },
    {
      "name": "Donnelly-Boyer Medical Hospital",
      "address": "12th Floor",
      "pincode": 18212
    },
    {
      "name": "Ruecker Group Medical Hospital",
      "address": "Suite 59",
      "pincode": 12198
    },
    {
      "name": "Olson-Thiel Medical Hospital",
      "address": "Suite 73",
      "pincode": 17148
    },
    {
      "name": "Waelchi, Ward and Larkin Medical Hospital",
      "address": "Room 959",
      "pincode": 18317
    },
    {
      "name": "Johnston, Hirthe and Macejkovic Medical Hospital",
      "address": "Apt 294",
      "pincode": 14640
    },
    {
      "name": "Conn, Block and Howell Medical Hospital",
      "address": "Room 552",
      "pincode": 19160
    },
    {
      "name": "Jacobi Inc Medical Hospital",
      "address": "Room 1344",
      "pincode": 16495
    },
    {
      "name": "Hettinger, Feest and Gutkowski Medical Hospital",
      "address": "7th Floor",
      "pincode": 18161
    },
    {
      "name": "O'Keefe-Turcotte Medical Hospital",
      "address": "PO Box 2850",
      "pincode": 18482
    },
    {
      "name": "Murray-Kohler Medical Hospital",
      "address": "Suite 55",
      "pincode": 14556
    },
    {
      "name": "Fadel, Stokes and Champlin Medical Hospital",
      "address": "Suite 64",
      "pincode": 17880
    },
    {
      "name": "Howell-Simonis Medical Hospital",
      "address": "Room 730",
      "pincode": 10398
    },
    {
      "name": "Rolfson-Wolf Medical Hospital",
      "address": "7th Floor",
      "pincode": 18170
    },
    {
      "name": "Schneider, Emmerich and Rowe Medical Hospital",
      "address": "Room 86",
      "pincode": 13324
    },
    {
      "name": "Dickinson-Ratke Medical Hospital",
      "address": "PO Box 96736",
      "pincode": 19377
    },
    {
      "name": "Hodkiewicz LLC Medical Hospital",
      "address": "PO Box 90879",
      "pincode": 17358
    },
    {
      "name": "Farrell, Langosh and Luettgen Medical Hospital",
      "address": "Apt 678",
      "pincode": 17934
    },
    {
      "name": "Farrell Inc Medical Hospital",
      "address": "PO Box 4615",
      "pincode": 18730
    },
    {
      "name": "Shanahan-Kreiger Medical Hospital",
      "address": "12th Floor",
      "pincode": 10868
    },
    {
      "name": "Kulas Group Medical Hospital",
      "address": "PO Box 98885",
      "pincode": 18710
    },
    {
      "name": "Deckow-Hegmann Medical Hospital",
      "address": "Apt 970",
      "pincode": 11592
    },
    {
      "name": "Wilderman Inc Medical Hospital",
      "address": "3rd Floor",
      "pincode": 10645
    },
    {
      "name": "Emard-Schultz Medical Hospital",
      "address": "Suite 57",
      "pincode": 19279
    },
    {
      "name": "Toy-Quitzon Medical Hospital",
      "address": "Apt 44",
      "pincode": 16741
    },
    {
      "name": "Robel-Hermann Medical Hospital",
      "address": "Apt 1139",
      "pincode": 10058
    },
    {
      "name": "Abernathy LLC Medical Hospital",
      "address": "Room 1260",
      "pincode": 14601
    },
    {
      "name": "Swaniawski Group Medical Hospital",
      "address": "7th Floor",
      "pincode": 16122
    },
    {
      "name": "Emard-Hegmann Medical Hospital",
      "address": "Suite 83",
      "pincode": 16812
    },
    {
      "name": "Schiller, Monahan and Kub Medical Hospital",
      "address": "Room 32",
      "pincode": 15628
    },
    {
      "name": "Kuhic, Parisian and Rice Medical Hospital",
      "address": "Suite 71",
      "pincode": 19842
    },
    {
      "name": "Grady and Sons Medical Hospital",
      "address": "PO Box 14698",
      "pincode": 11472
    },
    {
      "name": "Muller-Bruen Medical Hospital",
      "address": "Room 1920",
      "pincode": 12113
    },
    {
      "name": "Gottlieb and Sons Medical Hospital",
      "address": "PO Box 70635",
      "pincode": 11443
    },
    {
      "name": "Sipes-Dickens Medical Hospital",
      "address": "Suite 50",
      "pincode": 14245
    },
    {
      "name": "Haag, Hoppe and Stracke Medical Hospital",
      "address": "PO Box 42075",
      "pincode": 17852
    },
    {
      "name": "Huels-Kemmer Medical Hospital",
      "address": "Apt 1075",
      "pincode": 10727
    },
    {
      "name": "Gorczany Group Medical Hospital",
      "address": "Apt 47",
      "pincode": 19151
    }
  ]